[{"OBJECT_NAME":"STARLINK-1555","OBJECT_ID":"2020-055F","EPOCH":"2025-09-01T23:56:45.419424","MEAN_MOTION":15.06408321,"ECCENTRICITY":0.0001141,"INCLINATION":53.0534,"RA_OF_ASC_NODE":253.6928,"ARG_OF_PERICENTER":75.6642,"MEAN_ANOMALY":284.4473,"EPHEMERIS_TYPE":0,"CLASSIFICATION_TYPE":"U","NORAD_CAT_ID":46032,"ELEMENT_SET_NO":999,"REV_AT_EPOCH":28045,"BSTAR":0.0002171595,"MEAN_MOTION_DOT":2.955e-5,"MEAN_MOTION_DDOT":0},{"OBJECT_NAME":"STARLINK-1556","OBJECT_ID":"2020-055G","EPOCH":"2025-09-02T01:05:45.642624","MEAN_MOTION":15.06406086,"ECCENTRICITY":0.00012006,"INCLINATION":53.0542,"RA_OF_ASC_NODE":253.4767,"ARG_OF_PERICENTER":91.0948,"MEAN_ANOMALY":269.0179,"EPHEMERIS_TYPE":0,"CLASSIFICATION_TYPE":"U","NORAD_CAT_ID":46033,"ELEMENT_SET_NO":999,"REV_AT_EPOCH":28043,"BSTAR":0.00012838708,"MEAN_MOTION_DOT":1.632e-5,"MEAN_MOTION_DDOT":0},{"OBJECT_NAME":"STARLINK-1557","OBJECT_ID":"2020-055H","EPOCH":"2025-09-01T10:51:13.738176","MEAN_MOTION":15.06400328,"ECCENTRICITY":0.0001029,"INCLINATION":53.0541,"RA_OF_ASC_NODE":256.1386,"ARG_OF_PERICENTER":80.0339,"MEAN_ANOMALY":280.0766,"EPHEMERIS_TYPE":0,"CLASSIFICATION_TYPE":"U","NORAD_CAT_ID":46034,"ELEMENT_SET_NO":999,"REV_AT_EPOCH":28034,"BSTAR":0.00012937821,"MEAN_MOTION_DOT":1.646e-5,"MEAN_MOTION_DDOT":0},{"OBJECT_NAME":"STARLINK-1558","OBJECT_ID":"2020-055J","EPOCH":"2025-09-02T01:21:41.272416","MEAN_MOTION":15.06398504,"ECCENTRICITY":0.00010917,"INCLINATION":53.0542,"RA_OF_ASC_NODE":253.4234,"ARG_OF_PERICENTER":83.7967,"MEAN_ANOMALY":276.3147,"EPHEMERIS_TYPE":0,"CLASSIFICATION_TYPE":"U","NORAD_CAT_ID":46035,"ELEMENT_SET_NO":999,"REV_AT_EPOCH":28046,"BSTAR":4.4651792e-5,"MEAN_MOTION_DOT":3.84e-6,"MEAN_MOTION_DDOT":0},{"OBJECT_NAME":"STARLINK-1560","OBJECT_ID":"2020-055K","EPOCH":"2025-09-01T10:40:37.504992","MEAN_MOTION":15.06400788,"ECCENTRICITY":0.00013378,"INCLINATION":53.0543,"RA_OF_ASC_NODE":256.1729,"ARG_OF_PERICENTER":90.4967,"MEAN_ANOMALY":269.6175,"EPHEMERIS_TYPE":0,"CLASSIFICATION_TYPE":"U","NORAD_CAT_ID":46036,"ELEMENT_SET_NO":999,"REV_AT_EPOCH":28037,"BSTAR":0.00026235792,"MEAN_MOTION_DOT":3.629e-5,"MEAN_MOTION_DDOT":0},{"OBJECT_NAME":"STARLINK-1567","OBJECT_ID":"2020-055M","EPOCH":"2025-09-02T01:16:21.716832","MEAN_MOTION":15.06416045,"ECCENTRICITY":9.885e-5,"INCLINATION":53.0535,"RA_OF_ASC_NODE":253.4417,"ARG_OF_PERICENTER":93.312,"MEAN_ANOMALY":266.7982,"EPHEMERIS_TYPE":0,"CLASSIFICATION_TYPE":"U","NORAD_CAT_ID":46038,"ELEMENT_SET_NO":999,"REV_AT_EPOCH":28045,"BSTAR":0.00066849178,"MEAN_MOTION_DOT":9.694e-5,"MEAN_MOTION_DDOT":0},{"OBJECT_NAME":"STARLINK-1569","OBJECT_ID":"2020-055N","EPOCH":"2025-09-02T01:26:57.885216","MEAN_MOTION":15.06417178,"ECCENTRICITY":0.00010088,"INCLINATION":53.0531,"RA_OF_ASC_NODE":253.4088,"ARG_OF_PERICENTER":96.1015,"MEAN_ANOMALY":264.0089,"EPHEMERIS_TYPE":0,"CLASSIFICATION_TYPE":"U","NORAD_CAT_ID":46039,"ELEMENT_SET_NO":999,"REV_AT_EPOCH":28045,"BSTAR":-3.0297023e-5,"MEAN_MOTION_DOT":-7.33e-6,"MEAN_MOTION_DDOT":0},{"OBJECT_NAME":"STARLINK-1582","OBJECT_ID":"2020-055S","EPOCH":"2025-09-02T00:02:05.102880","MEAN_MOTION":15.06399057,"ECCENTRICITY":0.00011406,"INCLINATION":53.0543,"RA_OF_ASC_NODE":253.6758,"ARG_OF_PERICENTER":88.393,"MEAN_ANOMALY":271.719,"EPHEMERIS_TYPE":0,"CLASSIFICATION_TYPE":"U","NORAD_CAT_ID":46043,"ELEMENT_SET_NO":999,"REV_AT_EPOCH":28044,"BSTAR":5.5309455e-5,"MEAN_MOTION_DOT":5.43e-6,"MEAN_MOTION_DDOT":0},{"OBJECT_NAME":"STARLINK-1591","OBJECT_ID":"2020-055U","EPOCH":"2025-09-02T07:01:23.436768","MEAN_MOTION":15.06401893,"ECCENTRICITY":0.00012294,"INCLINATION":53.054,"RA_OF_ASC_NODE":252.3656,"ARG_OF_PERICENTER":84.4183,"MEAN_ANOMALY":275.6946,"EPHEMERIS_TYPE":0,"CLASSIFICATION_TYPE":"U","NORAD_CAT_ID":46045,"ELEMENT_SET_NO":999,"REV_AT_EPOCH":28047,"BSTAR":0.00011646074,"MEAN_MOTION_DOT":1.454e-5,"MEAN_MOTION_DDOT":0},{"OBJECT_NAME":"STARLINK-1524","OBJECT_ID":"2020-055W","EPOCH":"2025-09-01T10:47:15.198144","MEAN_MOTION":15.06402557,"ECCENTRICITY":0.00012759,"INCLINATION":53.0543,"RA_OF_ASC_NODE":246.1538,"ARG_OF_PERICENTER":89.5711,"MEAN_ANOMALY":270.5424,"EPHEMERIS_TYPE":0,"CLASSIFICATION_TYPE":"U","NORAD_CAT_ID":46047,"ELEMENT_SET_NO":999,"REV_AT_EPOCH":28050,"BSTAR":0.00018296316,"MEAN_MOTION_DOT":2.445e-5,"MEAN_MOTION_DDOT":0},{"OBJECT_NAME":"STARLINK-1527","OBJECT_ID":"2020-055X","EPOCH":"2025-09-01T23:26:15.157248","MEAN_MOTION":15.06412381,"ECCENTRICITY":0.00011677,"INCLINATION":53.0529,"RA_OF_ASC_NODE":243.7863,"ARG_OF_PERICENTER":86.0959,"MEAN_ANOMALY":274.0163,"EPHEMERIS_TYPE":0,"CLASSIFICATION_TYPE":"U","NORAD_CAT_ID":46048,"ELEMENT_SET_NO":999,"REV_AT_EPOCH":28056,"BSTAR":0.00041517145,"MEAN_MOTION_DOT":5.91e-5,"MEAN_MOTION_DDOT":0},{"OBJECT_NAME":"STARLINK-1540","OBJECT_ID":"2020-055AA","EPOCH":"2025-09-02T00:14:01.391712","MEAN_MOTION":15.06418979,"ECCENTRICITY":0.00010825,"INCLINATION":53.0528,"RA_OF_ASC_NODE":243.6356,"ARG_OF_PERICENTER":81.2469,"MEAN_ANOMALY":278.8643,"EPHEMERIS_TYPE":0,"CLASSIFICATION_TYPE":"U","NORAD_CAT_ID":46051,"ELEMENT_SET_NO":999,"REV_AT_EPOCH":28060,"BSTAR":0.00034542229,"MEAN_MOTION_DOT":4.87e-5,"MEAN_MOTION_DDOT":0},{"OBJECT_NAME":"STARLINK-1541","OBJECT_ID":"2020-055AB","EPOCH":"2025-09-01T23:52:47.047872","MEAN_MOTION":15.06403067,"ECCENTRICITY":0.00011852,"INCLINATION":53.0542,"RA_OF_ASC_NODE":243.7008,"ARG_OF_PERICENTER":80.8427,"MEAN_ANOMALY":279.2696,"EPHEMERIS_TYPE":0,"CLASSIFICATION_TYPE":"U","NORAD_CAT_ID":46052,"ELEMENT_SET_NO":999,"REV_AT_EPOCH":28056,"BSTAR":0.00016344257,"MEAN_MOTION_DOT":2.154e-5,"MEAN_MOTION_DDOT":0},{"OBJECT_NAME":"STARLINK-1543","OBJECT_ID":"2020-055AC","EPOCH":"2025-09-01T23:58:05.518272","MEAN_MOTION":15.06405836,"ECCENTRICITY":0.00011605,"INCLINATION":53.054,"RA_OF_ASC_NODE":243.6842,"ARG_OF_PERICENTER":84.9716,"MEAN_ANOMALY":275.1405,"EPHEMERIS_TYPE":0,"CLASSIFICATION_TYPE":"U","NORAD_CAT_ID":46053,"ELEMENT_SET_NO":999,"REV_AT_EPOCH":28059,"BSTAR":0.0001262436,"MEAN_MOTION_DOT":1.6e-5,"MEAN_MOTION_DDOT":0},{"OBJECT_NAME":"STARLINK-1548","OBJECT_ID":"2020-055AD","EPOCH":"2025-09-02T00:08:42.326016","MEAN_MOTION":15.06407615,"ECCENTRICITY":0.00010472,"INCLINATION":53.0541,"RA_OF_ASC_NODE":243.6529,"ARG_OF_PERICENTER":75.4093,"MEAN_ANOMALY":284.7012,"EPHEMERIS_TYPE":0,"CLASSIFICATION_TYPE":"U","NORAD_CAT_ID":46054,"ELEMENT_SET_NO":999,"REV_AT_EPOCH":28059,"BSTAR":0.00019495066,"MEAN_MOTION_DOT":2.624e-5,"MEAN_MOTION_DDOT":0},{"OBJECT_NAME":"STARLINK-1554","OBJECT_ID":"2020-055AE","EPOCH":"2025-09-01T17:25:19.192512","MEAN_MOTION":15.06397678,"ECCENTRICITY":0.00011841,"INCLINATION":53.0538,"RA_OF_ASC_NODE":244.9088,"ARG_OF_PERICENTER":87.0565,"MEAN_ANOMALY":273.0559,"EPHEMERIS_TYPE":0,"CLASSIFICATION_TYPE":"U","NORAD_CAT_ID":46055,"ELEMENT_SET_NO":999,"REV_AT_EPOCH":28055,"BSTAR":0.00017119393,"MEAN_MOTION_DOT":2.269e-5,"MEAN_MOTION_DDOT":0},{"OBJECT_NAME":"STARLINK-1564","OBJECT_ID":"2020-055AH","EPOCH":"2025-09-01T22:27:55.441440","MEAN_MOTION":15.06420761,"ECCENTRICITY":9.938e-5,"INCLINATION":53.0535,"RA_OF_ASC_NODE":244.4287,"ARG_OF_PERICENTER":96.9123,"MEAN_ANOMALY":263.1979,"EPHEMERIS_TYPE":0,"CLASSIFICATION_TYPE":"U","NORAD_CAT_ID":46058,"ELEMENT_SET_NO":999,"REV_AT_EPOCH":28057,"BSTAR":0.00064964597,"MEAN_MOTION_DOT":9.414e-5,"MEAN_MOTION_DDOT":0},{"OBJECT_NAME":"STARLINK-1570","OBJECT_ID":"2020-055AJ","EPOCH":"2025-09-02T07:08:01.626720","MEAN_MOTION":15.06414498,"ECCENTRICITY":0.00012217,"INCLINATION":53.0551,"RA_OF_ASC_NODE":242.3453,"ARG_OF_PERICENTER":87.1182,"MEAN_ANOMALY":272.9947,"EPHEMERIS_TYPE":0,"CLASSIFICATION_TYPE":"U","NORAD_CAT_ID":46059,"ELEMENT_SET_NO":999,"REV_AT_EPOCH":28059,"BSTAR":0.00015076078,"MEAN_MOTION_DOT":1.966e-5,"MEAN_MOTION_DDOT":0},{"OBJECT_NAME":"STARLINK-1572","OBJECT_ID":"2020-055AK","EPOCH":"2025-09-02T07:02:42.548928","MEAN_MOTION":15.06405392,"ECCENTRICITY":0.00013518,"INCLINATION":53.0539,"RA_OF_ASC_NODE":242.3606,"ARG_OF_PERICENTER":91.1525,"MEAN_ANOMALY":268.9619,"EPHEMERIS_TYPE":0,"CLASSIFICATION_TYPE":"U","NORAD_CAT_ID":46060,"ELEMENT_SET_NO":999,"REV_AT_EPOCH":28060,"BSTAR":6.0423151e-5,"MEAN_MOTION_DOT":6.19e-6,"MEAN_MOTION_DDOT":0},{"OBJECT_NAME":"STARLINK-1573","OBJECT_ID":"2020-055AL","EPOCH":"2025-09-02T06:57:24.280704","MEAN_MOTION":15.06405943,"ECCENTRICITY":0.00011009,"INCLINATION":53.0538,"RA_OF_ASC_NODE":242.4188,"ARG_OF_PERICENTER":89.5359,"MEAN_ANOMALY":270.5756,"EPHEMERIS_TYPE":0,"CLASSIFICATION_TYPE":"U","NORAD_CAT_ID":46061,"ELEMENT_SET_NO":999,"REV_AT_EPOCH":28063,"BSTAR":5.0069968e-5,"MEAN_MOTION_DOT":4.65e-6,"MEAN_MOTION_DDOT":0},{"OBJECT_NAME":"STARLINK-1577","OBJECT_ID":"2020-055AN","EPOCH":"2025-09-02T05:59:01.448448","MEAN_MOTION":15.06416731,"ECCENTRICITY":7.313e-5,"INCLINATION":53.053,"RA_OF_ASC_NODE":242.5594,"ARG_OF_PERICENTER":90.4537,"MEAN_ANOMALY":269.6535,"EPHEMERIS_TYPE":0,"CLASSIFICATION_TYPE":"U","NORAD_CAT_ID":46063,"ELEMENT_SET_NO":999,"REV_AT_EPOCH":28062,"BSTAR":0.00025388098,"MEAN_MOTION_DOT":3.504e-5,"MEAN_MOTION_DDOT":0},{"OBJECT_NAME":"STARLINK-1583","OBJECT_ID":"2020-055AP","EPOCH":"2025-09-01T22:49:05.837664","MEAN_MOTION":15.06405777,"ECCENTRICITY":0.00013319,"INCLINATION":53.053,"RA_OF_ASC_NODE":243.9033,"ARG_OF_PERICENTER":87.4105,"MEAN_ANOMALY":272.7037,"EPHEMERIS_TYPE":0,"CLASSIFICATION_TYPE":"U","NORAD_CAT_ID":46064,"ELEMENT_SET_NO":999,"REV_AT_EPOCH":28058,"BSTAR":0.00027421715,"MEAN_MOTION_DOT":3.806e-5,"MEAN_MOTION_DDOT":0},{"OBJECT_NAME":"STARLINK-1525","OBJECT_ID":"2020-055AR","EPOCH":"2025-09-02T05:08:36.033216","MEAN_MOTION":15.0640703,"ECCENTRICITY":0.00014447,"INCLINATION":53.0539,"RA_OF_ASC_NODE":222.7159,"ARG_OF_PERICENTER":91.8332,"MEAN_ANOMALY":268.2822,"EPHEMERIS_TYPE":0,"CLASSIFICATION_TYPE":"U","NORAD_CAT_ID":46066,"ELEMENT_SET_NO":999,"REV_AT_EPOCH":28089,"BSTAR":0.00017757092,"MEAN_MOTION_DOT":2.365e-5,"MEAN_MOTION_DDOT":0}]
